STARLINK-3004
1 48880U 21059B   26090.88411039  .00000396  00000+0  35430-4 0  9992
2 48880  97.6594 217.1909 0002561  84.2316 275.9200 15.01257280262137
STARLINK-3005
1 48881U 21059C   26090.61083955 -.00000258  00000+0 -15483-4 0  9991
2 48881  97.6596 216.8718 0002435  90.2178 269.9325 15.01261635262092
STARLINK-4362
1 53043U 22077A   26090.77091024  .00050649  00000+0  38759-2 0  9997
2 53043  97.6022 271.8377 0002259  57.4451 302.6992 15.01687061204239
STARLINK-4336
1 53051U 22077J   26090.76328582  .00063989  00000+0  48680-2 0  9992
2 53051  97.6018 271.8157 0002806  52.4577 307.6902 15.01829711204226
STARLINK-4337
1 53053U 22077L   26090.75290145  .00000934  00000+0  77244-4 0  9997
2 53053  97.6013 271.8187 0001691  84.0553 276.0864 15.01263956204221
STARLINK-4305
1 53060U 22077T   26090.48257294 -.00000100  00000+0 -32229-5 0  9995
2 53060  97.6003 271.5522 0000878 123.6194 236.5114 15.01261194204181
STARLINK-4323
1 53069U 22077AC  26090.46358227  .00050977  00000+0  39009-2 0  9995
2 53069  97.6024 271.5229 0002486 111.5613 248.5877 15.01686466204188
STARLINK-4321
1 53082U 22077AR  26090.78251330  .00000322  00000+0  29577-4 0  9992
2 53082  97.6037 271.8489 0001886  86.0683 274.0757 15.01260776204233
STARLINK-4333
1 53088U 22077AX  26090.77510674  .00000147  00000+0  15963-4 0  9995
2 53088  97.6026 271.8431 0002411  52.8605 307.2839 15.01260913204237
STARLINK-4410
1 53204U 22084R   26090.42480730  .00000000  00000+0  45535-5 0  9991
2 53204  97.6016 151.4878 0002023  89.6794 270.4662 15.01262042203239
STARLINK-4433
1 53478U 22099P   26090.56928195 -.00000448  00000+0 -30341-4 0  9993
2 53478  97.6021 211.6409 0004630 172.9607 187.1683 15.01260564199263
STARLINK-4453
1 53497U 22099AJ  26090.80527525  .00088481  00000+0  66683-2 0  9990
2 53497  97.6024 211.8768 0002570  98.3702 261.7815 15.02045926199300
STARLINK-4624
1 53684U 22105AN  26090.41068788 -.00000176  00000+0 -91140-5 0  9990
2 53684  97.6031 331.5437 0004063  53.0225 307.1371 15.01255009196477
STARLINK-4626
1 53685U 22105AP  26090.25334498  .00026979  00000+0  20854-2 0  9995
2 53685  97.6012 331.3160 0002444  77.6660 282.4838 15.01470683196474
STARLINK-4467
1 53686U 22105AQ  26090.42548221  .00002601  00000+0  20695-3 0  9996
2 53686  97.6049 331.5396 0001934 119.1469 240.9950 15.01268986196509
STARLINK-5979
1 56345U 23058AE  26090.89637336  .00000512  00000+0  44371-4 0  9993
2 56345  97.6044  91.9651 0002192 110.4357 249.7103 15.01262590161466
STARLINK-5888
1 56348U 23058AH  26090.50225791 -.00000327  00000+0 -20884-4 0  9991
2 56348  97.6039  91.5651 0002596 149.2918 210.8459 15.01262798161407
STARLINK-5885
1 56352U 23058AM  26090.89261989  .00010230  00000+0  79858-3 0  9993
2 56352  97.6066  91.9748 0002615  62.4276 297.7214 15.01320339161463
STARLINK-5874
1 56353U 23058AN  26090.87415683 -.00000017  00000+0  32621-5 0  9996
2 56353  97.6038  92.0113 0003479  66.4291 293.7298 15.01259775161464
STARLINK-5551
1 56359U 23058AU  26090.87995250  .00000289  00000+0  27035-4 0  9997
2 56359  97.6050  92.0024 0002555  80.4225 279.7288 15.01262925161466
STARLINK-34343
1 64157U 25112M   26090.85783828  .00023797  00000+0  18335-2 0  9999
2 64157  97.6215 143.3769 0019319 167.3257 192.8457 15.01476057 46644
STARLINK-34651
1 64861U 25152V   26090.57231973  .00016267  00000+0  12684-2 0  9998
2 64861  97.6020 307.1452 0001704 137.5037 222.6319 15.01252488 38711
STARLINK-34755
1 64940U 25158J   26090.61078168  .00003037  00000+0  24086-3 0  9993
2 64940  97.6018 316.1753 0002257  90.6141 269.5342 15.01266757 38685
STARLINK-35043
1 65436U 25194C   26090.54353133  .00002370  00000+0  18901-3 0  9992
2 65436  97.6032 306.5815 0002545  69.2494 290.9003 15.01263469 32972
STARLINK-34988
1 65453U 25194V   26090.87561910  .00004029  00000+0  31801-3 0  9998
2 65453  97.6026 307.2136 0002288  49.1834 310.9589 15.01266723 33044
STARLINK-35059
1 65454U 25194W   26090.87881664  .00005475  00000+0  43016-3 0  9997
2 65454  97.6030 306.7354 0002457  63.9923 296.1554 15.01285463 33013
